GLOBALSTAR M024         
1 25883U 99043A   25354.69585063 -.00000105  00000+0 -14213-2 0  9992
2 25883  52.0043 319.7928 0001841  36.6375 134.5486 11.10166005135578
GLOBALSTAR M054         
1 25885U 99043C   25354.65420648 -.00000092  00000+0 -52041-3 0  9994
2 25885  52.0112 139.1557 0005891 131.3540 241.0991 11.39224903140300
GLOBALSTAR M053         
1 25886U 99043D   25354.49121319 -.00000079  00000+0 -31362-3 0  9998
2 25886  51.9982  96.9779 0003590  55.5114  27.5410 11.27668869140468
GLOBALSTAR M058         
1 25907U 99049A   25354.61394042 -.00000108  00000+0 -31378-3 0  9997
2 25907  51.9970 331.3631 0001721 278.9419  81.1221 11.93206282563796
GLOBALSTAR M033         
1 25909U 99049C   25354.52983839 -.00000102  00000+0 -10044-3 0  9998
2 25909  51.9877 184.3035 0013126 289.9943  69.9490 12.20294799558498
GLOBALSTAR M055         
1 25910U 99049D   25354.67815036 -.00000074  00000+0  17016-3 0  9992
2 25910  51.9984 185.5515 0007493 149.8105 210.3180 12.29438428191229
